{"type":"FeatureCollection","features":[{"type":"Feature","properties":{"id":"yuseong","label":"유성구\nYUSEONG-GU","selectable":true,"labelAnchor":[127.31209585600934,36.361028596195695],"nameEn":"Yuseong"},"geometry":{"type":"Polygon","coordinates":[[[127.36388,36.34994],[127.37408,36.35248],[127.38019,36.35733],[127.37988,36.36371],[127.38409,36.36911],[127.38507,36.37689],[127.38849,36.38351],[127.38611,36.39093],[127.3801,36.39529],[127.36688,36.40308],[127.3642,36.40839],[127.36539,36.41629],[127.37872,36.41992],[127.38538,36.42459],[127.38063,36.42847],[127.37668,36.43668],[127.375,36.4498],[127.37021,36.45398],[127.3573,36.45471],[127.33807,36.45684],[127.33807,36.4382],[127.33701,36.43188],[127.33081,36.4205],[127.32449,36.4147],[127.31442,36.4093],[127.3045,36.40149],[127.298,36.39899],[127.27942,36.39862],[127.27087,36.39569],[127.26335,36.39206],[127.25739,36.37869],[127.25751,36.3725],[127.26581,36.35599],[127.26358,36.34998],[127.25411,36.34564],[127.2525,36.3371],[127.25653,36.32727],[127.25659,36.32098],[127.24573,36.29993],[127.23932,36.29031],[127.24215,36.27559],[127.2521,36.26329],[127.2597,36.26288],[127.26955,36.26505],[127.2782,36.26923],[127.28329,36.27469],[127.28729,36.28021],[127.29352,36.28189],[127.2963,36.28931],[127.30051,36.29431],[127.3013,36.3017],[127.30548,36.30829],[127.31058,36.3158],[127.31964,36.32045],[127.32318,36.32932],[127.32611,36.3389],[127.3396,36.34531],[127.34724,36.34982],[127.35629,36.35138],[127.36388,36.34994]]]}},{"type":"Feature","properties":{"id":"daedeok","label":"대덕구\nDAEDEOK-GU","selectable":true,"labelAnchor":[127.41653287906279,36.382539552847064],"nameEn":"Daedeok"},"geometry":{"type":"Polygon","coordinates":[[[127.38059,36.32567],[127.3894,36.32538],[127.39929,36.32706],[127.4064,36.3317],[127.41162,36.32751],[127.41818,36.32422],[127.43504,36.32219],[127.43628,36.32813],[127.4324,36.33298],[127.42389,36.34912],[127.4259,36.35529],[127.4267,36.36188],[127.43199,36.36783],[127.4393,36.3703],[127.4469,36.37891],[127.45981,36.39059],[127.47449,36.39322],[127.48053,36.3949],[127.4816,36.4032],[127.48169,36.41071],[127.47913,36.41632],[127.47388,36.41949],[127.46115,36.42294],[127.45648,36.42908],[127.45459,36.43591],[127.44611,36.43909],[127.4411,36.43408],[127.43591,36.42371],[127.42929,36.41833],[127.42133,36.41711],[127.41264,36.41824],[127.40039,36.42249],[127.38538,36.42459],[127.37872,36.41992],[127.36539,36.41629],[127.3642,36.40839],[127.36688,36.40308],[127.3801,36.39529],[127.38611,36.39093],[127.38849,36.38351],[127.38507,36.37689],[127.38409,36.36911],[127.37988,36.36371],[127.38019,36.35733],[127.37408,36.35248],[127.36388,36.34994],[127.36578,36.34219],[127.37475,36.32652],[127.38059,36.32567]]]}},{"type":"Feature","properties":{"id":"seo","label":"서구\nSEO-GU","selectable":true,"labelAnchor":[127.31798683394636,36.274282685486774],"nameEn":"Seo"},"geometry":{"type":"Polygon","coordinates":[[[127.34364,36.25854],[127.34182,36.26452],[127.34244,36.27144],[127.3418,36.27979],[127.34842,36.28238],[127.35132,36.289],[127.3555,36.30502],[127.36627,36.3161],[127.37109,36.32013],[127.37475,36.32652],[127.36578,36.34219],[127.36388,36.34994],[127.35629,36.35138],[127.34724,36.34982],[127.3396,36.34531],[127.32611,36.3389],[127.32318,36.32932],[127.31964,36.32045],[127.31058,36.3158],[127.30548,36.30829],[127.3013,36.3017],[127.30051,36.29431],[127.2963,36.28931],[127.29352,36.28189],[127.28729,36.28021],[127.28329,36.27469],[127.2782,36.26923],[127.26955,36.26505],[127.2597,36.26288],[127.2521,36.26329],[127.26572,36.25153],[127.2692,36.23898],[127.26938,36.23209],[127.27228,36.22632],[127.2807,36.22127],[127.29041,36.2131],[127.29828,36.20868],[127.30856,36.19948],[127.31372,36.20569],[127.3252,36.21249],[127.33261,36.21899],[127.33441,36.2326],[127.33801,36.2438],[127.33868,36.25311],[127.34364,36.25854]]]}},{"type":"Feature","properties":{"id":"jung","label":"중구\nJUNG-GU","selectable":true,"labelAnchor":[127.38017947506835,36.2661267309848],"nameEn":"Jung"},"geometry":{"type":"Polygon","coordinates":[[[127.38995,36.20081],[127.39349,36.20673],[127.3941,36.2121],[127.39621,36.21631],[127.40378,36.21588],[127.40839,36.22302],[127.40369,36.23691],[127.39911,36.2417],[127.40167,36.24652],[127.40527,36.24979],[127.40271,36.255],[127.4035,36.26151],[127.40051,36.26761],[127.39948,36.27228],[127.4057,36.2713],[127.4115,36.27289],[127.41739,36.27029],[127.4245,36.2711],[127.4176,36.28192],[127.41061,36.29041],[127.40231,36.3035],[127.39392,36.31128],[127.38059,36.32567],[127.37475,36.32652],[127.37109,36.32013],[127.36627,36.3161],[127.3555,36.30502],[127.35132,36.289],[127.34842,36.28238],[127.3418,36.27979],[127.34244,36.27144],[127.34182,36.26452],[127.34364,36.25854],[127.35224,36.25671],[127.36298,36.25018],[127.36462,36.24371],[127.36081,36.23459],[127.36004,36.2239],[127.3645,36.21808],[127.37207,36.21289],[127.38162,36.20419],[127.38995,36.20081]]]}},{"type":"Feature","properties":{"id":"dong","label":"동구\nDONG-GU","selectable":true,"labelAnchor":[127.45044653385725,36.29293591459274],"nameEn":"Dong"},"geometry":{"type":"Polygon","coordinates":[[[127.38995,36.20081],[127.39551,36.19141],[127.40747,36.18268],[127.414,36.18021],[127.42334,36.18047],[127.44115,36.19914],[127.46219,36.2019],[127.47158,36.2049],[127.46729,36.21228],[127.46539,36.2182],[127.46597,36.22791],[127.4723,36.24167],[127.47421,36.24918],[127.47369,36.25531],[127.47693,36.26288],[127.47809,36.26971],[127.4787,36.28671],[127.48187,36.29187],[127.48849,36.29578],[127.4946,36.3017],[127.5029,36.32089],[127.5058,36.3331],[127.5134,36.34909],[127.52539,36.3541],[127.5295,36.3614],[127.52377,36.37342],[127.51801,36.37891],[127.51075,36.38141],[127.5036,36.38193],[127.49792,36.37848],[127.49127,36.37207],[127.4848,36.3718],[127.47888,36.37869],[127.47809,36.38733],[127.48053,36.3949],[127.47449,36.39322],[127.45981,36.39059],[127.4469,36.37891],[127.4393,36.3703],[127.43199,36.36783],[127.4267,36.36188],[127.4259,36.35529],[127.42389,36.34912],[127.4324,36.33298],[127.43628,36.32813],[127.43504,36.32219],[127.41818,36.32422],[127.41162,36.32751],[127.4064,36.3317],[127.39929,36.32706],[127.3894,36.32538],[127.38059,36.32567],[127.39392,36.31128],[127.40231,36.3035],[127.41061,36.29041],[127.4176,36.28192],[127.4245,36.2711],[127.41739,36.27029],[127.4115,36.27289],[127.4057,36.2713],[127.39948,36.27228],[127.40051,36.26761],[127.4035,36.26151],[127.40271,36.255],[127.40527,36.24979],[127.40167,36.24652],[127.39911,36.2417],[127.40369,36.23691],[127.40839,36.22302],[127.40378,36.21588],[127.39621,36.21631],[127.3941,36.2121],[127.39349,36.20673],[127.38995,36.20081]]]}}],"borders":[[[127.2521,36.26329],[127.2597,36.26288],[127.26955,36.26505],[127.2782,36.26923],[127.28329,36.27469],[127.28729,36.28021],[127.29352,36.28189],[127.2963,36.28931],[127.30051,36.29431],[127.3013,36.3017],[127.30548,36.30829],[127.31058,36.3158],[127.31964,36.32045],[127.32318,36.32932],[127.32611,36.3389],[127.3396,36.34531],[127.34724,36.34982],[127.35629,36.35138],[127.36388,36.34994]],[[127.34364,36.25854],[127.34182,36.26452],[127.34244,36.27144],[127.3418,36.27979],[127.34842,36.28238],[127.35132,36.289],[127.3555,36.30502],[127.36627,36.3161],[127.37109,36.32013],[127.37475,36.32652]],[[127.36388,36.34994],[127.37408,36.35248],[127.38019,36.35733],[127.37988,36.36371],[127.38409,36.36911],[127.38507,36.37689],[127.38849,36.38351],[127.38611,36.39093],[127.3801,36.39529],[127.36688,36.40308],[127.3642,36.40839],[127.36539,36.41629],[127.37872,36.41992],[127.38538,36.42459]],[[127.36388,36.34994],[127.36578,36.34219],[127.37475,36.32652]],[[127.37475,36.32652],[127.38059,36.32567]],[[127.38995,36.20081],[127.39349,36.20673],[127.3941,36.2121],[127.39621,36.21631],[127.40378,36.21588],[127.40839,36.22302],[127.40369,36.23691],[127.39911,36.2417],[127.40167,36.24652],[127.40527,36.24979],[127.40271,36.255],[127.4035,36.26151],[127.40051,36.26761],[127.39948,36.27228],[127.4057,36.2713],[127.4115,36.27289],[127.41739,36.27029],[127.4245,36.2711],[127.4176,36.28192],[127.41061,36.29041],[127.40231,36.3035],[127.39392,36.31128],[127.38059,36.32567]],[[127.38059,36.32567],[127.3894,36.32538],[127.39929,36.32706],[127.4064,36.3317],[127.41162,36.32751],[127.41818,36.32422],[127.43504,36.32219],[127.43628,36.32813],[127.4324,36.33298],[127.42389,36.34912],[127.4259,36.35529],[127.4267,36.36188],[127.43199,36.36783],[127.4393,36.3703],[127.4469,36.37891],[127.45981,36.39059],[127.47449,36.39322],[127.48053,36.3949]],[[127.38162,36.20419],[127.37207,36.21289],[127.3645,36.21808],[127.36004,36.2239],[127.36081,36.23459],[127.36462,36.24371],[127.36298,36.25018],[127.35224,36.25671],[127.34364,36.25854],[127.33868,36.25311],[127.33801,36.2438],[127.33441,36.2326],[127.33261,36.21899],[127.3252,36.21249],[127.31372,36.20569],[127.30856,36.19948],[127.29828,36.20868],[127.29041,36.2131],[127.2807,36.22127],[127.27228,36.22632],[127.26938,36.23209],[127.2692,36.23898],[127.26572,36.25153],[127.2521,36.26329],[127.24215,36.27559],[127.23932,36.29031],[127.24573,36.29993],[127.25659,36.32098],[127.25653,36.32727],[127.2525,36.3371],[127.25411,36.34564],[127.26358,36.34998],[127.26581,36.35599],[127.25751,36.3725],[127.25739,36.37869],[127.26335,36.39206],[127.27087,36.39569],[127.27942,36.39862],[127.298,36.39899],[127.3045,36.40149],[127.31442,36.4093],[127.32449,36.4147],[127.33081,36.4205],[127.33701,36.43188],[127.33807,36.4382],[127.33807,36.45684],[127.3573,36.45471],[127.37021,36.45398],[127.375,36.4498],[127.37668,36.43668],[127.38063,36.42847],[127.38538,36.42459],[127.40039,36.42249],[127.41264,36.41824],[127.42133,36.41711],[127.42929,36.41833],[127.43591,36.42371],[127.4411,36.43408],[127.44611,36.43909],[127.45459,36.43591],[127.45648,36.42908],[127.46115,36.42294],[127.47388,36.41949],[127.47913,36.41632],[127.48169,36.41071],[127.4816,36.4032],[127.48053,36.3949],[127.47809,36.38733],[127.47888,36.37869],[127.4848,36.3718],[127.49127,36.37207],[127.49792,36.37848],[127.5036,36.38193],[127.51075,36.38141],[127.51801,36.37891],[127.52377,36.37342],[127.5295,36.3614],[127.52539,36.3541],[127.5134,36.34909],[127.5058,36.3331],[127.5029,36.32089],[127.4946,36.3017],[127.48849,36.29578],[127.48187,36.29187],[127.4787,36.28671],[127.47809,36.26971],[127.47693,36.26288],[127.47369,36.25531],[127.47421,36.24918],[127.4723,36.24167],[127.46597,36.22791],[127.46539,36.2182],[127.46729,36.21228],[127.47158,36.2049],[127.46219,36.2019],[127.44115,36.19914],[127.42334,36.18047],[127.414,36.18021],[127.40747,36.18268],[127.39551,36.19141],[127.38995,36.20081],[127.38162,36.20419]]],"metadata":{"source":"southkorea/southkorea-maps (GADM municipalities GeoJSON)","sourceUrl":"https://github.com/southkorea/southkorea-maps","note":"Planar partition for Daejeon gu: face fills + inner shared edges + outer silhouette.","simplify":"set_precision(1e-05) + topojson toposimplify epsilon=0.0004","innerCount":7,"outerCount":1,"borderCount":8}}